{
"type": "FeatureCollection",
"name": "ebird_hotspots_anta",
"crs": { "type": "name", "properties": { "name": "urn:ogc:def:crs:OGC:1.3:CRS84" } },
"features": [
{ "type": "Feature", "properties": { "id_hotspot": "L782919", "nombre_hotspot": "Parque Arqueológico Choquequirao", "url_ebird": "https://ebird.org/hotspot/L782919/bird-list", "distrito_ubicacion": "Mollepata", "total_especies_ebird": 196, "total_observaciones_ebird": 1232, "especies_amenazadas": 2, "especies_endemicas": 0, "ultimo_anio": 2026.0, "tooltip": "<b>Sitio eBird: Parque Arqueológico Choquequirao</b><br>Ubicación: Mollepata<br>Especies de Aves en eBird: 196<br>Observaciones en eBird: 1232<br>Amenazadas / Endémicas: 2 / 0" }, "geometry": { "type": "Point", "coordinates": [ -72.873911022043799, -13.393320285992154 ] } },
{ "type": "Feature", "properties": { "id_hotspot": "L8571886", "nombre_hotspot": "Laguna Humantay", "url_ebird": "https://ebird.org/hotspot/L8571886/bird-list", "distrito_ubicacion": "Mollepata", "total_especies_ebird": 141, "total_observaciones_ebird": 1722, "especies_amenazadas": 2, "especies_endemicas": 0, "ultimo_anio": 2026.0, "tooltip": "<b>Sitio eBird: Laguna Humantay</b><br>Ubicación: Mollepata<br>Especies de Aves en eBird: 141<br>Observaciones en eBird: 1722<br>Amenazadas / Endémicas: 2 / 0" }, "geometry": { "type": "Point", "coordinates": [ -72.584782682596583, -13.378974922360975 ] } },
{ "type": "Feature", "properties": { "id_hotspot": "L15073939", "nombre_hotspot": "Laguna Humantay - Caminata Puesto de Control", "url_ebird": "https://ebird.org/hotspot/L15073939/bird-list", "distrito_ubicacion": "Mollepata", "total_especies_ebird": 228, "total_observaciones_ebird": 6668, "especies_amenazadas": 4, "especies_endemicas": 0, "ultimo_anio": 2026.0, "tooltip": "<b>Sitio eBird: Laguna Humantay - Caminata Puesto de Control</b><br>Ubicación: Mollepata<br>Especies de Aves en eBird: 228<br>Observaciones en eBird: 6668<br>Amenazadas / Endémicas: 4 / 0" }, "geometry": { "type": "Point", "coordinates": [ -72.575282542001446, -13.387684220623685 ] } },
{ "type": "Feature", "properties": { "id_hotspot": "L5065776", "nombre_hotspot": "Mirador de Condor", "url_ebird": "https://ebird.org/hotspot/L5065776/bird-list", "distrito_ubicacion": "Limatambo", "total_especies_ebird": 155, "total_observaciones_ebird": 3547, "especies_amenazadas": 2, "especies_endemicas": 0, "ultimo_anio": 2026.0, "tooltip": "<b>Sitio eBird: Mirador de Condor</b><br>Ubicación: Limatambo<br>Especies de Aves en eBird: 155<br>Observaciones en eBird: 3547<br>Amenazadas / Endémicas: 2 / 0" }, "geometry": { "type": "Point", "coordinates": [ -72.480209599017286, -13.57369627819922 ] } },
{ "type": "Feature", "properties": { "id_hotspot": "L5065724", "nombre_hotspot": "Yoga Limatambo Hotel", "url_ebird": "https://ebird.org/hotspot/L5065724/bird-list", "distrito_ubicacion": "Limatambo", "total_especies_ebird": 134, "total_observaciones_ebird": 966, "especies_amenazadas": 2, "especies_endemicas": 0, "ultimo_anio": 2025.0, "tooltip": "<b>Sitio eBird: Yoga Limatambo Hotel</b><br>Ubicación: Limatambo<br>Especies de Aves en eBird: 134<br>Observaciones en eBird: 966<br>Amenazadas / Endémicas: 2 / 0" }, "geometry": { "type": "Point", "coordinates": [ -72.498213235114918, -13.5088464237246 ] } },
{ "type": "Feature", "properties": { "id_hotspot": "L4820432", "nombre_hotspot": "Reposo del Angel", "url_ebird": "https://ebird.org/hotspot/L4820432/bird-list", "distrito_ubicacion": "Limatambo", "total_especies_ebird": 136, "total_observaciones_ebird": 1023, "especies_amenazadas": 2, "especies_endemicas": 0, "ultimo_anio": 2025.0, "tooltip": "<b>Sitio eBird: Reposo del Angel</b><br>Ubicación: Limatambo<br>Especies de Aves en eBird: 136<br>Observaciones en eBird: 1023<br>Amenazadas / Endémicas: 2 / 0" }, "geometry": { "type": "Point", "coordinates": [ -72.499680347253744, -13.507162560163207 ] } },
{ "type": "Feature", "properties": { "id_hotspot": "L8413446", "nombre_hotspot": "Pincopata EcoCamp", "url_ebird": "https://ebird.org/hotspot/L8413446/bird-list", "distrito_ubicacion": "Mollepata", "total_especies_ebird": 181, "total_observaciones_ebird": 5495, "especies_amenazadas": 2, "especies_endemicas": 0, "ultimo_anio": 2025.0, "tooltip": "<b>Sitio eBird: Pincopata EcoCamp</b><br>Ubicación: Mollepata<br>Especies de Aves en eBird: 181<br>Observaciones en eBird: 5495<br>Amenazadas / Endémicas: 2 / 0" }, "geometry": { "type": "Point", "coordinates": [ -72.53304517668812, -13.491275779627111 ] } },
{ "type": "Feature", "properties": { "id_hotspot": "L13016446", "nombre_hotspot": "Humedal del Yungaqui", "url_ebird": "https://ebird.org/hotspot/L13016446/bird-list", "distrito_ubicacion": "Anta", "total_especies_ebird": 131, "total_observaciones_ebird": 6063, "especies_amenazadas": 2, "especies_endemicas": 0, "ultimo_anio": 2025.0, "tooltip": "<b>Sitio eBird: Humedal del Yungaqui</b><br>Ubicación: Anta<br>Especies de Aves en eBird: 131<br>Observaciones en eBird: 6063<br>Amenazadas / Endémicas: 2 / 0" }, "geometry": { "type": "Point", "coordinates": [ -72.177266700105037, -13.480821900346658 ] } },
{ "type": "Feature", "properties": { "id_hotspot": "L5054377", "nombre_hotspot": "Represa Chacan", "url_ebird": "https://ebird.org/hotspot/L5054377/bird-list", "distrito_ubicacion": "Anta", "total_especies_ebird": 115, "total_observaciones_ebird": 9372, "especies_amenazadas": 2, "especies_endemicas": 0, "ultimo_anio": 2026.0, "tooltip": "<b>Sitio eBird: Represa Chacan</b><br>Ubicación: Anta<br>Especies de Aves en eBird: 115<br>Observaciones en eBird: 9372<br>Amenazadas / Endémicas: 2 / 0" }, "geometry": { "type": "Point", "coordinates": [ -72.130426691042373, -13.435960518696952 ] } },
{ "type": "Feature", "properties": { "id_hotspot": "L892475", "nombre_hotspot": "Laguna Huaypo", "url_ebird": "https://ebird.org/hotspot/L892475/bird-list", "distrito_ubicacion": "Anta", "total_especies_ebird": 170, "total_observaciones_ebird": 10216, "especies_amenazadas": 2, "especies_endemicas": 0, "ultimo_anio": 2026.0, "tooltip": "<b>Sitio eBird: Laguna Huaypo</b><br>Ubicación: Anta<br>Especies de Aves en eBird: 170<br>Observaciones en eBird: 10216<br>Amenazadas / Endémicas: 2 / 0" }, "geometry": { "type": "Point", "coordinates": [ -72.128381161193332, -13.401569584780573 ] } },
{ "type": "Feature", "properties": { "id_hotspot": "L4544771", "nombre_hotspot": "Laguna Loocray Huayllacocha", "url_ebird": "https://ebird.org/hotspot/L4544771/bird-list", "distrito_ubicacion": "Huarocondo", "total_especies_ebird": 33, "total_observaciones_ebird": 209, "especies_amenazadas": 0, "especies_endemicas": 0, "ultimo_anio": 2024.0, "tooltip": "<b>Sitio eBird: Laguna Loocray Huayllacocha</b><br>Ubicación: Huarocondo<br>Especies de Aves en eBird: 33<br>Observaciones en eBird: 209<br>Amenazadas / Endémicas: 0 / 0" }, "geometry": { "type": "Point", "coordinates": [ -72.171785376939525, -13.407596816012427 ] } },
{ "type": "Feature", "properties": { "id_hotspot": "L16831267", "nombre_hotspot": "Zurite Qente Qentiyoc", "url_ebird": "https://ebird.org/hotspot/L16831267/bird-list", "distrito_ubicacion": "Zurite", "total_especies_ebird": 110, "total_observaciones_ebird": 2597, "especies_amenazadas": 2, "especies_endemicas": 0, "ultimo_anio": 2024.0, "tooltip": "<b>Sitio eBird: Zurite Qente Qentiyoc</b><br>Ubicación: Zurite<br>Especies de Aves en eBird: 110<br>Observaciones en eBird: 2597<br>Amenazadas / Endémicas: 2 / 0" }, "geometry": { "type": "Point", "coordinates": [ -72.251427712966276, -13.433218963928288 ] } },
{ "type": "Feature", "properties": { "id_hotspot": "L8166287", "nombre_hotspot": "Sitio Arqueologico de Killarumiyoc", "url_ebird": "https://ebird.org/hotspot/L8166287/bird-list", "distrito_ubicacion": "Ancahuasi", "total_especies_ebird": 75, "total_observaciones_ebird": 301, "especies_amenazadas": 0, "especies_endemicas": 0, "ultimo_anio": 2024.0, "tooltip": "<b>Sitio eBird: Sitio Arqueologico de Killarumiyoc</b><br>Ubicación: Ancahuasi<br>Especies de Aves en eBird: 75<br>Observaciones en eBird: 301<br>Amenazadas / Endémicas: 0 / 0" }, "geometry": { "type": "Point", "coordinates": [ -72.310989385695081, -13.44556050264719 ] } },
{ "type": "Feature", "properties": { "id_hotspot": "L3483388", "nombre_hotspot": "Soraypampa", "url_ebird": "https://ebird.org/hotspot/L3483388/bird-list", "distrito_ubicacion": "Mollepata", "total_especies_ebird": 216, "total_observaciones_ebird": 5975, "especies_amenazadas": 4, "especies_endemicas": 0, "ultimo_anio": 2026.0, "tooltip": "<b>Sitio eBird: Soraypampa</b><br>Ubicación: Mollepata<br>Especies de Aves en eBird: 216<br>Observaciones en eBird: 5975<br>Amenazadas / Endémicas: 4 / 0" }, "geometry": { "type": "Point", "coordinates": [ -72.573188426280836, -13.397729269786032 ] } },
{ "type": "Feature", "properties": { "id_hotspot": "L21694969", "nombre_hotspot": "Paso Salkantay", "url_ebird": "https://ebird.org/hotspot/L21694969/bird-list", "distrito_ubicacion": "Mollepata", "total_especies_ebird": 114, "total_observaciones_ebird": 530, "especies_amenazadas": 3, "especies_endemicas": 0, "ultimo_anio": 2026.0, "tooltip": "<b>Sitio eBird: Paso Salkantay</b><br>Ubicación: Mollepata<br>Especies de Aves en eBird: 114<br>Observaciones en eBird: 530<br>Amenazadas / Endémicas: 3 / 0" }, "geometry": { "type": "Point", "coordinates": [ -72.559767771554689, -13.351150533538275 ] } },
{ "type": "Feature", "properties": { "id_hotspot": "L33530159", "nombre_hotspot": "Santuario Historico Machu Picchu - Challacancha a Soraypampa", "url_ebird": "https://ebird.org/hotspot/L33530159/bird-list", "distrito_ubicacion": "Mollepata", "total_especies_ebird": 96, "total_observaciones_ebird": 565, "especies_amenazadas": 1, "especies_endemicas": 0, "ultimo_anio": 2026.0, "tooltip": "<b>Sitio eBird: Santuario Historico Machu Picchu - Challacancha a Soraypampa</b><br>Ubicación: Mollepata<br>Especies de Aves en eBird: 96<br>Observaciones en eBird: 565<br>Amenazadas / Endémicas: 1 / 0" }, "geometry": { "type": "Point", "coordinates": [ -72.569640336472048, -13.415584676069479 ] } },
{ "type": "Feature", "properties": { "id_hotspot": "L6347866", "nombre_hotspot": "Puente Cunyac", "url_ebird": "https://ebird.org/hotspot/L6347866/bird-list", "distrito_ubicacion": "Mollepata", "total_especies_ebird": 4, "total_observaciones_ebird": 6, "especies_amenazadas": 0, "especies_endemicas": 0, "ultimo_anio": 2023.0, "tooltip": "<b>Sitio eBird: Puente Cunyac</b><br>Ubicación: Mollepata<br>Especies de Aves en eBird: 4<br>Observaciones en eBird: 6<br>Amenazadas / Endémicas: 0 / 0" }, "geometry": { "type": "Point", "coordinates": [ -72.57530866053456, -13.562730808941547 ] } }
]
}
